<?xml version="1.0" encoding="UTF-8"?>
<cdm xmlns:xsi="http://www.w3.org/2001/XMLSchema-instance"
xsi:noNamespaceSchemaLocation="http://sanaregistry.org/r/ndmxml/ndmxml-1.0-master.xsd"
id="CCSDS_CDM_VERS" version="1.0">
	<header>
		<COMMENT>JSPOC - CDM Test Message</COMMENT>
		<COMMENT>NOTES:</COMMENT>
		<COMMENT> -- TIME OF CLOSEST APPROACH IS THE VECTOR AND COVARIANCE TIME TAG </COMMENT>
		<COMMENT> -- DC SPAN IS THE TIME SPAN FOR THE LISTED NUMBER OF TRACKS       </COMMENT>
		<COMMENT> -- NUMBER OF TRACKS IS THE NUMBER OF 1 OR MORE OBSERVATION SENSOR </COMMENT>
		<COMMENT>    TRACKS ACQUIRED FROM A QUALITY SENSOR DURING THE DC TIME SPAN  </COMMENT>
		<COMMENT> -- TDR (EFG) STATE VECTORS ARE EARTH-FIXED ROTATING VECTORS       </COMMENT>
		<COMMENT>    REFERENCED TO THE TRUE EQUATOR OF DATE.                        </COMMENT>
		<COMMENT> -- RELATIVE VECTORS ARE IN ASSET-CENTERED INERTIAL UVW            </COMMENT>
		<COMMENT>    (RADIAL, IN-TRACK, CROSS-TRACK) COORDINATES                    </COMMENT>
		<COMMENT> -- COVARIANCE MATRICES ARE IN THEIR RESPECTIVE INERTIAL UVW       </COMMENT>
		<COMMENT>    (RADIAL, IN-TRACK, CROSS-TRACK) COORDINATES                    </COMMENT>
		<COMMENT> -- COVARIANCE MATRICES REPRESENT UNSCALED VALUES                  </COMMENT>
		<COMMENT> -- THE (7,X),(X,7) COMPONENTS OF THE COVARIANCE MATRICES ARE FOR  </COMMENT>
		<COMMENT>    ATMOSPHERIC DRAG EFFECTS                                       </COMMENT>
		<COMMENT> -- THE (8,X),(X,8) COMPONENTS OF THE COVARIANCE MATRICES ARE FOR  </COMMENT>
		<COMMENT>    SOLAR RADIATION PRESSURE EFFECTS                               </COMMENT>
		
		
		
		
		
		<CREATION_DATE>2013-01-09T22:43:54.000</CREATION_DATE>
		<ORIGINATOR>JSpOC</ORIGINATOR>
		<MESSAGE_FOR>CA</MESSAGE_FOR>
		<MESSAGE_ID>2013009224354Z</MESSAGE_ID>
	</header>
	<body>
		<relativeMetadataData>
			<COMMENT>RELATIVE DATA</COMMENT>
			
			<TCA>2013-01-14T22:14:38.000</TCA>
			<MISS_DISTANCE units="m">5748</MISS_DISTANCE>
			<RELATIVE_SPEED units="m/s">4</RELATIVE_SPEED>
			<relativeStateVector>
				<RELATIVE_POSITION_R units="m">-2739.3</RELATIVE_POSITION_R>
				<RELATIVE_POSITION_T units="m">2693.6</RELATIVE_POSITION_T>
				<RELATIVE_POSITION_N units="m">4276.4</RELATIVE_POSITION_N>
				<RELATIVE_VELOCITY_R units="m/s">0.1</RELATIVE_VELOCITY_R>
				<RELATIVE_VELOCITY_T units="m/s">0.1</RELATIVE_VELOCITY_T>
				<RELATIVE_VELOCITY_N units="m/s">-4.4</RELATIVE_VELOCITY_N>
			</relativeStateVector>
			
			
		</relativeMetadataData>
		<segment>
			<metadata>
				<COMMENT>ASSET SATELLITE</COMMENT>
				<OBJECT>OBJECT1</OBJECT>
				<OBJECT_DESIGNATOR>36582</OBJECT_DESIGNATOR>
				<CATALOG_NAME>US SATCAT</CATALOG_NAME>
				<OBJECT_NAME>COMSATBW-2</OBJECT_NAME>
				<INTERNATIONAL_DESIGNATOR>2010-021B</INTERNATIONAL_DESIGNATOR>
				<EPHEMERIS_NAME>NONE</EPHEMERIS_NAME>
				<COVARIANCE_METHOD>CALCULATED</COVARIANCE_METHOD>
				<MANEUVERABLE>N/A</MANEUVERABLE>
				<ORBIT_CENTER>EARTH</ORBIT_CENTER>
				<REF_FRAME>ITRF</REF_FRAME>
				<GRAVITY_MODEL>EGM-96: 36D 36O</GRAVITY_MODEL>
				<ATMOSPHERIC_MODEL>JACCHIA 70 DCA</ATMOSPHERIC_MODEL>
				<N_BODY_PERTUBATIONS>MOON,SUN</N_BODY_PERTUBATIONS>
				<SOLAR_RAD_PRESSURE>YES</SOLAR_RAD_PRESSURE>
				<EARTH_TIDES>NO</EARTH_TIDES>
				<INTRACK_THRUST>NO</INTRACK_THRUST>
			</metadata>
			<data>
				<COMMENT>ASSET SATELLITE Data</COMMENT>
				<odParameters>
					<COMMENT>OD Parameters</COMMENT>
					
					
					<RECOMMENDED_OD_SPAN units="d">28.07</RECOMMENDED_OD_SPAN>
					<ACTUAL_OD_SPAN units="d">19.12</ACTUAL_OD_SPAN>
					<OBS_AVAILABLE>606</OBS_AVAILABLE>
					<OBS_USED>407</OBS_USED>
					
					
					<RESIDUALS_ACCEPTED units="%">92.0</RESIDUALS_ACCEPTED>
					<WEIGHTED_RMS>1.094</WEIGHTED_RMS>
				</odParameters>
				<additionalParameters>
					
					
					
					
					
					<CD_AREA_OVER_MASS units="m**2/kg">0.000000</CD_AREA_OVER_MASS>
					<CR_AREA_OVER_MASS units="m**2/kg">0.028073</CR_AREA_OVER_MASS>
					<SEDR units="W/kg">0.00000E+00</SEDR>
				</additionalParameters>
				<stateVector>
					<COMMENT>State Vector</COMMENT>
					<X units="km">41045.885374823</X>
					<Y units="km">9665.475162698</Y>
					<Z units="km">28.686504190</Z>
					<X_DOT units="km/s">0.000174830</X_DOT>
					<Y_DOT units="km/s">-0.000603319</Y_DOT>
					<Z_DOT units="km/s">0.005693654</Z_DOT>
				</stateVector>
				<covarianceMatrix>
					<COMMENT>Covariance Matrix</COMMENT>
					<CR_R units="m**2">8.331E+01</CR_R>
					<CT_R units="m**2">-1.797E+02</CT_R>
					<CT_T units="m**2">1.092E+04</CT_T>
					<CN_R units="m**2">5.283E+01</CN_R>
					<CN_T units="m**2">-7.398E+01</CN_T>
					<CN_N units="m**2">4.120E+02</CN_N>
					<CRDOT_R units="m**2/s">0.000E+00</CRDOT_R>
					<CRDOT_T units="m**2/s">0.000E+00</CRDOT_T>
					<CRDOT_N units="m**2/s">0.000E+00</CRDOT_N>
					<CRDOT_RDOT units="m**2/s**2">0.000E+00</CRDOT_RDOT>
					<CTDOT_R units="m**2/s">0.000E+00</CTDOT_R>
					<CTDOT_T units="m**2/s">0.000E+00</CTDOT_T>
					<CTDOT_N units="m**2/s">0.000E+00</CTDOT_N>
					<CTDOT_RDOT units="m**2/s**2">0.000E+00</CTDOT_RDOT>
					<CTDOT_TDOT units="m**2/s**2">0.000E+00</CTDOT_TDOT>
					<CNDOT_R units="m**2/s">0.000E+00</CNDOT_R>
					<CNDOT_T units="m**2/s">0.000E+00</CNDOT_T>
					<CNDOT_N units="m**2/s">0.000E+00</CNDOT_N>
					<CNDOT_RDOT units="m**2/s**2">0.000E+00</CNDOT_RDOT>
					<CNDOT_TDOT units="m**2/s**2">0.000E+00</CNDOT_TDOT>
					<CNDOT_NDOT units="m**2/s**2">0.000E+00</CNDOT_NDOT>
				</covarianceMatrix>
			</data>
		</segment>
		<segment>
			<metadata>
				<COMMENT>CONJUNCTING SATELLITE</COMMENT>
				<OBJECT>OBJECT2</OBJECT>
				<OBJECT_DESIGNATOR>33459</OBJECT_DESIGNATOR>
				<CATALOG_NAME>US SATCAT</CATALOG_NAME>
				<OBJECT_NAME>EUTE HOT BIRD 13C (HB 9)</OBJECT_NAME>
				<INTERNATIONAL_DESIGNATOR>2008-065A</INTERNATIONAL_DESIGNATOR>
				<EPHEMERIS_NAME>NONE</EPHEMERIS_NAME>
				<COVARIANCE_METHOD>CALCULATED</COVARIANCE_METHOD>
				<MANEUVERABLE>N/A</MANEUVERABLE>
				<ORBIT_CENTER>EARTH</ORBIT_CENTER>
				<REF_FRAME>ITRF</REF_FRAME>
				<GRAVITY_MODEL>EGM-96: 36D 36O</GRAVITY_MODEL>
				<ATMOSPHERIC_MODEL>JACCHIA 70 DCA</ATMOSPHERIC_MODEL>
				<N_BODY_PERTUBATIONS>*ERROR*</N_BODY_PERTUBATIONS>
				<SOLAR_RAD_PRESSURE>YES</SOLAR_RAD_PRESSURE>
				<EARTH_TIDES>NO</EARTH_TIDES>
				<INTRACK_THRUST>NO</INTRACK_THRUST>
			</metadata>
			<data>
				<COMMENT>CONJUNCTING SATELLITE Data</COMMENT>
				<odParameters>
					<COMMENT>OD Parameters</COMMENT>
					
					
					<RECOMMENDED_OD_SPAN units="d">28.06</RECOMMENDED_OD_SPAN>
					<ACTUAL_OD_SPAN units="d">0.37</ACTUAL_OD_SPAN>
					<OBS_AVAILABLE>512</OBS_AVAILABLE>
					<OBS_USED>24</OBS_USED>
					
					
					<RESIDUALS_ACCEPTED units="%">100.0</RESIDUALS_ACCEPTED>
					<WEIGHTED_RMS>1.682</WEIGHTED_RMS>
				</odParameters>
				<additionalParameters>
					
					
					
					
					
					<CD_AREA_OVER_MASS units="m**2/kg">0.000000</CD_AREA_OVER_MASS>
					<CR_AREA_OVER_MASS units="m**2/kg">0.002894</CR_AREA_OVER_MASS>
					<SEDR units="W/kg">0.00000E+00</SEDR>
				</additionalParameters>
				<stateVector>
					<COMMENT>State Vector</COMMENT>
					<X units="km">41042.600551140</X>
					<Y units="km">9667.460818535</Y>
					<Z units="km">32.966032060</Z>
					<X_DOT units="km/s">0.000339673</X_DOT>
					<Y_DOT units="km/s">-0.000197872</Y_DOT>
					<Z_DOT units="km/s">0.001292337</Z_DOT>
				</stateVector>
				<covarianceMatrix>
					<COMMENT>Covariance Matrix</COMMENT>
					<CR_R units="m**2">6.767E+04</CR_R>
					<CT_R units="m**2">-1.869E+07</CT_R>
					<CT_T units="m**2">8.132E+09</CT_T>
					<CN_R units="m**2">-1.994E+04</CN_R>
					<CN_T units="m**2">7.214E+06</CN_T>
					<CN_N units="m**2">2.264E+04</CN_N>
					<CRDOT_R units="m**2/s">0.000E+00</CRDOT_R>
					<CRDOT_T units="m**2/s">0.000E+00</CRDOT_T>
					<CRDOT_N units="m**2/s">0.000E+00</CRDOT_N>
					<CRDOT_RDOT units="m**2/s**2">0.000E+00</CRDOT_RDOT>
					<CTDOT_R units="m**2/s">0.000E+00</CTDOT_R>
					<CTDOT_T units="m**2/s">0.000E+00</CTDOT_T>
					<CTDOT_N units="m**2/s">0.000E+00</CTDOT_N>
					<CTDOT_RDOT units="m**2/s**2">0.000E+00</CTDOT_RDOT>
					<CTDOT_TDOT units="m**2/s**2">0.000E+00</CTDOT_TDOT>
					<CNDOT_R units="m**2/s">0.000E+00</CNDOT_R>
					<CNDOT_T units="m**2/s">0.000E+00</CNDOT_T>
					<CNDOT_N units="m**2/s">0.000E+00</CNDOT_N>
					<CNDOT_RDOT units="m**2/s**2">0.000E+00</CNDOT_RDOT>
					<CNDOT_TDOT units="m**2/s**2">0.000E+00</CNDOT_TDOT>
					<CNDOT_NDOT units="m**2/s**2">0.000E+00</CNDOT_NDOT>
				</covarianceMatrix>
			</data>
		</segment>
	</body>
</cdm>
